[{"OBJECT_NAME":"JILIN-1 07","OBJECT_ID":"2018-008E","EPOCH":"2026-03-09T22:24:26.445888","MEAN_MOTION":15.32987507,"ECCENTRICITY":0.00101791,"INCLINATION":97.1876,"RA_OF_ASC_NODE":91.5817,"ARG_OF_PERICENTER":62.7832,"MEAN_ANOMALY":297.4447,"EPHEMERIS_TYPE":0,"CLASSIFICATION_TYPE":"U","NORAD_CAT_ID":43159,"ELEMENT_SET_NO":999,"REV_AT_EPOCH":44978,"BSTAR":0.00036439521,"MEAN_MOTION_DOT":0.00011559,"MEAN_MOTION_DDOT":0},{"OBJECT_NAME":"STARLINK-30091","OBJECT_ID":"2023-107G","EPOCH":"2026-03-09T02:58:36.288768","MEAN_MOTION":15.27580258,"ECCENTRICITY":0.00020649,"INCLINATION":42.9976,"RA_OF_ASC_NODE":339.0335,"ARG_OF_PERICENTER":272.7411,"MEAN_ANOMALY":87.3204,"EPHEMERIS_TYPE":0,"CLASSIFICATION_TYPE":"U","NORAD_CAT_ID":57463,"ELEMENT_SET_NO":999,"REV_AT_EPOCH":14506,"BSTAR":0.00012695736,"MEAN_MOTION_DOT":3.233e-5,"MEAN_MOTION_DDOT":0}]
